ASTROCAST-0201          
1 48954U 21059CD  24154.36648393  .00012415  00000+0  43335-3 0  9998
2 48954  97.6307 300.0577 0011033 131.2289 228.9904 15.29690667162790
ASTROCAST-0203          
1 48955U 21059CE  24154.38865722  .00010767  00000+0  37665-3 0  9995
2 48955  97.6287 299.6397 0012746 127.1190 233.1216 15.29638390162797
ASTROCAST-0205          
1 48960U 21059CK  24154.34471875  .00012532  00000+0  43800-3 0  9999
2 48960  97.6289 299.9185 0012256 107.6083 252.6496 15.29630926162796
NAPA-2                  
1 48963U 21059CN  24154.57770316  .00010006  00000+0  38818-3 0  9996
2 48963  97.6399 296.2368 0011260 129.0312 231.1930 15.26262453162553
W-CUBE                  
1 48965U 21059CQ  24154.37100939  .00015994  00000+0  54214-3 0  9993
2 48965  97.6428 298.8346 0009563 122.6061 237.6104 15.30596401162669
NEPT-1                  
1 48966U 21059CR  24154.59136154  .00108151  00000+0  11460-2 0  9999
2 48966  97.6223 309.0050 0002557 138.0960 222.0494 15.63764218163463
JILIN-1 GAOFEN 3D01     
1 49004U 21061B   24154.58005495  .00017339  00000+0  62159-3 0  9997
2 49004  97.3983 219.4186 0009373 184.8056 175.3096 15.28746944161383
JILIN-1 GAOFEN 3D03     
1 49006U 21061D   24154.58346729  .00014425  00000+0  58258-3 0  9995
2 49006  97.3965 216.6127 0009314 237.9936 122.0397 15.24833102161204
XINGSHIDAI 10           
1 49007U 21061E   24154.57629111  .00014021  00000+0  56775-3 0  9998
2 49007  97.3970 216.5478 0010703 225.9254 134.1103 15.24737872161197
FENGYUN 3E              
1 49008U 21062A   24154.54783567  .00000048  00000+0  43518-4 0  9999
2 49008  98.7318 156.0240 0002749  80.8045 279.3442 14.19756234150913
ISS (NAUKA)             
1 49044U 21066A   24154.51567801  .00020422  00000+0  35473-3 0  9999
2 49044  51.6394  28.0122 0005759 266.9814 160.5876 15.50788756162259
BRO-4                   
1 49066U 21073A   24154.52954740  .00022808  00000+0  73611-3 0  9990
2 49066  97.4487 230.3644 0016016 310.8945  49.0908 15.32018891154516
RADCUBE                 
1 49067U 21073B   24154.54848078  .00096170  00000+0  14656-2 0  9995
2 49067  97.4381 235.1959 0011143 281.1524  78.8476 15.54083247154837
SUNSTORM                
1 49068U 21073C   24154.18373593  .00077311  00000+0  13535-2 0  9992
2 49068  97.4438 233.9337 0010208 294.5229  65.4957 15.50285359154704
LEDSAT                  
1 49069U 21073D   24154.15616822  .00016343  00000+0  66738-3 0  9997
2 49069  97.4383 225.3925 0018393 339.5904  20.4596 15.24316831154166
STARLINK-3100           
1 49144U 21082Q   24154.33281187  .00000116  00000+0  17520-4 0  9990
2 49144  69.9988 121.6201 0002953 267.8123  92.2697 14.98327659149311
CUTE                    
1 49263U 21088D   24154.57798663  .00016733  00000+0  79574-3 0  9994
2 49263  97.4985 220.6704 0016150 130.6509 229.6132 15.19145626147429
2021-091B               
1 49316U 21091B   24154.57338616  .00004176  00000+0  20426-3 0  9995
2 49316  97.4565 342.2292 0004413 283.7705  76.3038 15.18750167145995
2021-091H               
1 49322U 21091H   24154.58295753  .00019587  00000+0  52252-3 0  9991
2 49322  97.4430 350.4907 0011984 125.5238 234.7126 15.38103981146562
SDGSAT 1                
1 49387U 21100A   24154.62148762  .00004280  00000+0  20498-3 0  9996
2 49387  97.3675 213.3469 0004018 320.9157  39.1788 15.19458774142844
ASTERISC                
1 49395U 21102A   24154.11564371  .00029426  00000+0  12091-2 0  9997
2 49395  97.4341 205.7038 0009181 269.8300  90.1885 15.24102410141009
TEIKYOSAT-4 (OORURI)    
1 49396U 21102B   24154.07934855  .00003147  00000+0  22996-3 0  9999
2 49396  97.4601 199.5784 0012692 332.0106  28.0437 15.04284323140481
Z-SAT                   
1 49399U 21102E   24154.61169048  .00004779  00000+0  31091-3 0  9994
2 49399  97.4324 201.6085 0019054 310.3549  49.6015 15.08294330140792
HIBARI                  
1 49400U 21102F   24154.11266131  .00006492  00000+0  38211-3 0  9998
2 49400  97.4307 202.7676 0016015 298.7754  61.1867 15.11862026140842
KOSEN-1                 
1 49402U 21102H   24154.08592411  .00007252  00000+0  43296-3 0  9993
2 49402  97.4249 202.4852 0017386 294.7831  65.1591 15.11285549140865
GLOBAL-14               
1 49469U 21106A   24154.61685816  .00020837  00000+0  56484-3 0  9998
2 49469  42.0110 318.4766 0008755 285.7494  74.2380 15.37165160143402
GLOBAL-15               
1 49470U 21106B   24154.59984488  .00063436  00000+0  70701-3 0  9994
2 49470  41.9989 339.0188 0028984 303.5972  56.2110 15.61390713143164
GAOFEN-3 02             
1 49495U 21109A   24154.55291648  .00000101  00000+0  43870-4 0  9997
2 49495  98.4119 162.0681 0003453  79.9901 280.1678 14.42221093132982
GLOBAL-12               
1 49772U 21115BA  24154.44139275  .00020052  00000+0  53032-3 0  9994
2 49772  53.2062 319.0704 0008880 284.8736  75.1286 15.38386498141050
GLOBAL-13               
1 49773U 21115BB  24153.76617083  .00021722  00000+0  57421-3 0  9998
2 49773  53.2068 323.4860 0007406 289.0214  70.9988 15.38359107140935
TIANJIN UNIVERSITY 1 (*)
1 49812U 21117A   24154.58775925  .00111189  00000+0  57606-3 0  9997
2 49812  97.3148 249.6253 0005288 225.2837 134.8001 15.80714803139929
GLOBAL-17               
1 49949U 21120A   24154.23164857  .00020617  00000+0  53777-3 0  9990
2 49949  42.0038  87.4829 0009419 225.8539 134.1526 15.38351266140028
GLOBAL-16               
1 49950U 21120B   24154.20246196  .00021083  00000+0  54539-3 0  9991
2 49950  42.0044  87.2463 0009753 230.2575 129.7406 15.38590963140015
XW-3 (CAS-9)            
1 50466U 21131B   24154.60001788  .00000771  00000+0  26091-3 0  9990
2 50466  98.5279 239.7371 0004730 156.3961 203.7444 14.39633358127908
UMBRA-02                
1 50986U 22002C   24154.61005031  .00035470  00000+0  13674-2 0  9997
2 50986  97.3928 219.5773 0001628   5.7069 354.4188 15.26234288132040
TEVEL-3                 
1 50988U 22002E   24154.55869717  .00139650  00000+0  14901-2 0  9990
2 50988  97.3780 229.7298 0001466 187.4844 172.6393 15.63484214132766
TEVEL-8                 
1 50989U 22002F   24154.47095588  .00132881  00000+0  14311-2 0  9993
2 50989  97.3803 229.7300 0001605 180.0919 180.0340 15.63268097132746
ION SCV-004             
1 50993U 22002K   24154.18335857  .00005435  00000+0  26418-3 0  9998
2 50993  97.3893 215.3992 0011270 102.8721 257.3773 15.18780658131749
TEVEL-5                 
1 50998U 22002Q   24154.47713876  .00178180  00000+0  14898-2 0  9992
2 50998  97.3763 230.9827 0002304 229.5093 130.5968 15.69460869132842
TEVEL-6                 
1 50999U 22002R   24154.48532422  .00172808  00000+0  14623-2 0  9997
2 50999  97.3754 230.9512 0002171 228.5922 131.5153 15.69184816132848
TEVEL-1                 
1 51013U 22002AF  24154.58836082  .00133294  00000+0  14362-2 0  9991
2 51013  97.3773 229.6177 0001307 194.6586 165.4635 15.63255201132761
IRIS-A                  
1 51044U 22002BN  24154.61306967  .00017382  00000+0  58212-3 0  9995
2 51044  97.3857 221.1771 0007392  91.3498 268.8590 15.30980728132198
FLOCK 4X-28             
1 51045U 22002BP  24154.17130704  .00186851  00000+0  19202-2 0  9994
2 51045  97.3768 232.9375 0003643 289.1284  70.9580 15.64288257132922
KEPLER-19               
1 51051U 22002BV  24154.43151266  .00015116  00000+0  55473-3 0  9992
2 51051  97.3901 219.5050 0008870 105.5599 254.6620 15.28011876132046
ETV-A1                  
1 51060U 22002CE  24154.58787102  .00007521  00000+0  34033-3 0  9992
2 51060  97.3916 217.5205 0009712 113.5266 246.6991 15.21143386131909
BRO-5                   
1 51061U 22002CF  24154.56232556  .00015138  00000+0  62516-3 0  9999
2 51061  97.3964 218.9998 0009514 118.3484 241.8714 15.24069506131973
TEVEL-7                 
1 51062U 22002CG  24154.58616095  .00135276  00000+0  14434-2 0  9997
2 51062  97.3790 229.8265 0001345 198.0865 162.0346 15.63499159132768
TEVEL-4                 
1 51063U 22002CH  24154.56367795  .00137135  00000+0  14952-2 0  9997
2 51063  97.3793 229.6962 0001153 190.6250 169.4984 15.62937768132757
TEVEL-2                 
1 51069U 22002CP  24154.55624221  .00140897  00000+0  15006-2 0  9992
2 51069  97.3776 229.6953 0001420 191.1689 168.9538 15.63528032132764
VZLUSAT-2               
1 51085U 22002DF  24154.53469824  .00014331  00000+0  54003-3 0  9998
2 51085  97.3889 219.2924 0011860 104.7333 255.5222 15.27119394132035
L-SAR 01A               
1 51284U 22007A   24154.44162318  .00001131  00000+0  12789-3 0  9991
2 51284  97.8102 161.5294 0001581  89.8840 270.2558 14.88413898127697
INSPIRESAT-1            
1 51657U 22013B   24153.99378087  .00013656  00000+0  54121-3 0  9994
2 51657  97.5297 170.7253 0007775 208.8975 151.1833 15.25495375127249
INS-2TD                 
1 51658U 22013C   24154.05571812  .00043497  00000+0  95912-3 0  9993
2 51658  97.5198 176.8080 0007169 178.9401 181.1863 15.43761281127667
L-SAR 01B               
1 51822U 22018A   24154.40793426  .00001078  00000+0  12221-3 0  9998
2 51822  97.8106 161.4648 0001617  92.2693 267.8709 14.88410047122929
2022-019D               
1 51827U 22019D   24154.56968844  .00010006  00000+0  44456-3 0  9995
2 51827  97.4347 226.6307 0011607 289.3485  70.6495 15.21670876125023
2022-019G               
1 51830U 22019G   24154.59051460  .00063606  00000+0  11770-2 0  9995
2 51830  97.4295 234.8573 0010312 249.3715 110.6430 15.48759546125596
JILIN-1 GAOFEN 03D14    
1 51831U 22019H   24154.60180751  .00015119  00000+0  57868-3 0  9999
2 51831  97.4345 228.9730 0013638 281.8674  78.1035 15.26571481125181
2022-019J               
1 51832U 22019J   24154.55824763  .00003111  00000+0  17210-3 0  9998
2 51832  97.4337 223.8560 0008244 311.8002  48.2525 15.14563525124845
JILIN-1 GAOFEN 03D16    
1 51834U 22019L   24154.59574337  .00015230  00000+0  58313-3 0  9997
2 51834  97.4351 229.0231 0010819 292.0700  67.9389 15.26591547125184
